STARLINK-33696          
1 63463U 25070D   25338.66428407  .00002667  00000+0  10635-3 0  9992
2 63463  43.0018  76.4483 0002175 260.8865  99.1741 15.27597337 38441
STARLINK-33701          
1 63464U 25070E   25338.30152897  .00069331  00000+0  25011-2 0  9995
2 63464  43.0001  78.8827 0001491 253.7941 106.2747 15.27636576 38386
STARLINK-33685          
1 63465U 25070F   25338.61045865  .00059266  00000+0  21412-2 0  9993
2 63465  43.0059  76.9030 0002097 282.1288  77.9329 15.27652106 38431
STARLINK-33654          
1 63466U 25070G   25338.66556545  .00053145  00000+0  19239-2 0  9995
2 63466  43.0051  76.4513 0002342 264.9381  95.1203 15.27629207 38440
STARLINK-33697          
1 63467U 25070H   25338.66814251  .00075003  00000+0  26985-2 0  9990
2 63467  43.0035  76.4852 0001985 304.0839  55.9825 15.27688364 38448
STARLINK-33720          
1 63468U 25070J   25338.66942436  .00092273  00000+0  33141-2 0  9998
2 63468  43.0034  76.4818 0001541 305.1622  54.9085 15.27647520 38446
STARLINK-33587          
1 63469U 25070K   25338.65399890  .00052863  00000+0  19128-2 0  9998
2 63469  43.0067  76.3706 0002990 284.6317  75.4203 15.27646946 38440
STARLINK-33637          
1 63470U 25070L   25338.63232395  .00070924  00000+0  25559-2 0  9997
2 63470  42.9997  77.0619 0000865 267.8857  92.1896 15.27659926 38439
STARLINK-33744          
1 63471U 25070M   25338.68226690  .00051426  00000+0  18613-2 0  9993
2 63471  43.0049  76.5791 0003385 280.9168  79.1302 15.27647265 38447
STARLINK-33766          
1 63472U 25070N   25338.56049053  .00048518  00000+0  17588-2 0  9995
2 63472  43.0006  77.3873 0001694 254.0340 106.0325 15.27621754 38424
STARLINK-33765          
1 63473U 25070P   25338.60788850  .00069398  00000+0  25021-2 0  9996
2 63473  43.0033  76.8776 0001467 268.1740  91.8944 15.27654240 38434
STARLINK-33735          
1 63474U 25070Q   25338.58989890  .00059892  00000+0  21642-2 0  9994
2 63474  43.0010  76.7421 0001086 262.8269  97.2459 15.27642713 38433
STARLINK-33731          
1 63475U 25070R   25338.56435186  .00049264  00000+0  17858-2 0  9993
2 63475  42.9997  77.4128 0001272 262.4261  97.6446 15.27616057 38424
STARLINK-33718          
1 63476U 25070S   25338.31551441  .00007965  00000+0  29856-3 0  9994
2 63476  42.9995  78.1201 0001716 269.7391  90.3264 15.27590631 38393
STARLINK-33630          
1 63477U 25070T   25338.65705236  .00059312  00000+0  21432-2 0  9999
2 63477  43.0002  72.9060 0001325 261.5215  98.5487 15.27647442 38481
STARLINK-33695          
1 63478U 25070U   25338.64419860  .00051659  00000+0  18694-2 0  9996
2 63478  43.0076  72.8102 0003304 281.9341  78.1140 15.27652064 38480
STARLINK-33713          
1 63479U 25070V   25338.64805492  .00050051  00000+0  18132-2 0  9999
2 63479  43.0036  72.8347 0001859 263.1084  96.9556 15.27630430 38489
