[{"OBJECT_NAME":"STARLINK-33696","OBJECT_ID":"2025-070D","EPOCH":"2025-12-04T15:56:34.143648","MEAN_MOTION":15.27597337,"ECCENTRICITY":0.0002175,"INCLINATION":43.0018,"RA_OF_ASC_NODE":76.4483,"ARG_OF_PERICENTER":260.8865,"MEAN_ANOMALY":99.1741,"EPHEMERIS_TYPE":0,"CLASSIFICATION_TYPE":"U","NORAD_CAT_ID":63463,"ELEMENT_SET_NO":999,"REV_AT_EPOCH":3844,"BSTAR":0.00010635,"MEAN_MOTION_DOT":2.667e-5,"MEAN_MOTION_DDOT":0},{"OBJECT_NAME":"STARLINK-33701","OBJECT_ID":"2025-070E","EPOCH":"2025-12-04T07:14:12.103008","MEAN_MOTION":15.27636576,"ECCENTRICITY":0.0001491,"INCLINATION":43.0001,"RA_OF_ASC_NODE":78.8827,"ARG_OF_PERICENTER":253.7941,"MEAN_ANOMALY":106.2747,"EPHEMERIS_TYPE":0,"CLASSIFICATION_TYPE":"U","NORAD_CAT_ID":63464,"ELEMENT_SET_NO":999,"REV_AT_EPOCH":3838,"BSTAR":0.0025011,"MEAN_MOTION_DOT":0.00069331,"MEAN_MOTION_DDOT":0},{"OBJECT_NAME":"STARLINK-33685","OBJECT_ID":"2025-070F","EPOCH":"2025-12-04T14:39:03.627360","MEAN_MOTION":15.27652106,"ECCENTRICITY":0.0002097,"INCLINATION":43.0059,"RA_OF_ASC_NODE":76.903,"ARG_OF_PERICENTER":282.1288,"MEAN_ANOMALY":77.9329,"EPHEMERIS_TYPE":0,"CLASSIFICATION_TYPE":"U","NORAD_CAT_ID":63465,"ELEMENT_SET_NO":999,"REV_AT_EPOCH":3843,"BSTAR":0.0021412,"MEAN_MOTION_DOT":0.00059266,"MEAN_MOTION_DDOT":0},{"OBJECT_NAME":"STARLINK-33654","OBJECT_ID":"2025-070G","EPOCH":"2025-12-04T15:58:24.854880","MEAN_MOTION":15.27629207,"ECCENTRICITY":0.0002342,"INCLINATION":43.0051,"RA_OF_ASC_NODE":76.4513,"ARG_OF_PERICENTER":264.9381,"MEAN_ANOMALY":95.1203,"EPHEMERIS_TYPE":0,"CLASSIFICATION_TYPE":"U","NORAD_CAT_ID":63466,"ELEMENT_SET_NO":999,"REV_AT_EPOCH":3844,"BSTAR":0.0019239,"MEAN_MOTION_DOT":0.00053145,"MEAN_MOTION_DDOT":0},{"OBJECT_NAME":"STARLINK-33697","OBJECT_ID":"2025-070H","EPOCH":"2025-12-04T16:02:07.512864","MEAN_MOTION":15.27688364,"ECCENTRICITY":0.0001985,"INCLINATION":43.0035,"RA_OF_ASC_NODE":76.4852,"ARG_OF_PERICENTER":304.0839,"MEAN_ANOMALY":55.9825,"EPHEMERIS_TYPE":0,"CLASSIFICATION_TYPE":"U","NORAD_CAT_ID":63467,"ELEMENT_SET_NO":999,"REV_AT_EPOCH":3844,"BSTAR":0.0026985,"MEAN_MOTION_DOT":0.00075003,"MEAN_MOTION_DDOT":0},{"OBJECT_NAME":"STARLINK-33720","OBJECT_ID":"2025-070J","EPOCH":"2025-12-04T16:03:58.264704","MEAN_MOTION":15.2764752,"ECCENTRICITY":0.0001541,"INCLINATION":43.0034,"RA_OF_ASC_NODE":76.4818,"ARG_OF_PERICENTER":305.1622,"MEAN_ANOMALY":54.9085,"EPHEMERIS_TYPE":0,"CLASSIFICATION_TYPE":"U","NORAD_CAT_ID":63468,"ELEMENT_SET_NO":999,"REV_AT_EPOCH":3844,"BSTAR":0.0033141,"MEAN_MOTION_DOT":0.00092273,"MEAN_MOTION_DDOT":0},{"OBJECT_NAME":"STARLINK-33587","OBJECT_ID":"2025-070K","EPOCH":"2025-12-04T15:41:45.504960","MEAN_MOTION":15.27646946,"ECCENTRICITY":0.000299,"INCLINATION":43.0067,"RA_OF_ASC_NODE":76.3706,"ARG_OF_PERICENTER":284.6317,"MEAN_ANOMALY":75.4203,"EPHEMERIS_TYPE":0,"CLASSIFICATION_TYPE":"U","NORAD_CAT_ID":63469,"ELEMENT_SET_NO":999,"REV_AT_EPOCH":3844,"BSTAR":0.0019128,"MEAN_MOTION_DOT":0.00052863,"MEAN_MOTION_DDOT":0},{"OBJECT_NAME":"STARLINK-33637","OBJECT_ID":"2025-070L","EPOCH":"2025-12-04T15:10:32.789280","MEAN_MOTION":15.27659926,"ECCENTRICITY":8.65e-5,"INCLINATION":42.9997,"RA_OF_ASC_NODE":77.0619,"ARG_OF_PERICENTER":267.8857,"MEAN_ANOMALY":92.1896,"EPHEMERIS_TYPE":0,"CLASSIFICATION_TYPE":"U","NORAD_CAT_ID":63470,"ELEMENT_SET_NO":999,"REV_AT_EPOCH":3843,"BSTAR":0.0025559,"MEAN_MOTION_DOT":0.00070924,"MEAN_MOTION_DDOT":0},{"OBJECT_NAME":"STARLINK-33744","OBJECT_ID":"2025-070M","EPOCH":"2025-12-04T16:22:27.860160","MEAN_MOTION":15.27647265,"ECCENTRICITY":0.0003385,"INCLINATION":43.0049,"RA_OF_ASC_NODE":76.5791,"ARG_OF_PERICENTER":280.9168,"MEAN_ANOMALY":79.1302,"EPHEMERIS_TYPE":0,"CLASSIFICATION_TYPE":"U","NORAD_CAT_ID":63471,"ELEMENT_SET_NO":999,"REV_AT_EPOCH":3844,"BSTAR":0.0018613,"MEAN_MOTION_DOT":0.00051426,"MEAN_MOTION_DDOT":0},{"OBJECT_NAME":"STARLINK-33766","OBJECT_ID":"2025-070N","EPOCH":"2025-12-04T13:27:06.381792","MEAN_MOTION":15.27621754,"ECCENTRICITY":0.0001694,"INCLINATION":43.0006,"RA_OF_ASC_NODE":77.3873,"ARG_OF_PERICENTER":254.034,"MEAN_ANOMALY":106.0325,"EPHEMERIS_TYPE":0,"CLASSIFICATION_TYPE":"U","NORAD_CAT_ID":63472,"ELEMENT_SET_NO":999,"REV_AT_EPOCH":3842,"BSTAR":0.0017588,"MEAN_MOTION_DOT":0.00048518,"MEAN_MOTION_DDOT":0},{"OBJECT_NAME":"STARLINK-33765","OBJECT_ID":"2025-070P","EPOCH":"2025-12-04T14:35:21.566400","MEAN_MOTION":15.2765424,"ECCENTRICITY":0.0001467,"INCLINATION":43.0033,"RA_OF_ASC_NODE":76.8776,"ARG_OF_PERICENTER":268.174,"MEAN_ANOMALY":91.8944,"EPHEMERIS_TYPE":0,"CLASSIFICATION_TYPE":"U","NORAD_CAT_ID":63473,"ELEMENT_SET_NO":999,"REV_AT_EPOCH":3843,"BSTAR":0.0025021,"MEAN_MOTION_DOT":0.00069398,"MEAN_MOTION_DDOT":0},{"OBJECT_NAME":"STARLINK-33735","OBJECT_ID":"2025-070Q","EPOCH":"2025-12-04T14:09:27.264960","MEAN_MOTION":15.27642713,"ECCENTRICITY":0.0001086,"INCLINATION":43.001,"RA_OF_ASC_NODE":76.7421,"ARG_OF_PERICENTER":262.8269,"MEAN_ANOMALY":97.2459,"EPHEMERIS_TYPE":0,"CLASSIFICATION_TYPE":"U","NORAD_CAT_ID":63474,"ELEMENT_SET_NO":999,"REV_AT_EPOCH":3843,"BSTAR":0.0021642,"MEAN_MOTION_DOT":0.00059892,"MEAN_MOTION_DDOT":0},{"OBJECT_NAME":"STARLINK-33731","OBJECT_ID":"2025-070R","EPOCH":"2025-12-04T13:32:40.000704","MEAN_MOTION":15.27616057,"ECCENTRICITY":0.00012726,"INCLINATION":42.9997,"RA_OF_ASC_NODE":77.4128,"ARG_OF_PERICENTER":262.4261,"MEAN_ANOMALY":97.6446,"EPHEMERIS_TYPE":0,"CLASSIFICATION_TYPE":"U","NORAD_CAT_ID":63475,"ELEMENT_SET_NO":999,"REV_AT_EPOCH":3842,"BSTAR":0.0017858453,"MEAN_MOTION_DOT":0.00049264,"MEAN_MOTION_DDOT":0},{"OBJECT_NAME":"STARLINK-33718","OBJECT_ID":"2025-070S","EPOCH":"2025-12-04T07:34:20.445024","MEAN_MOTION":15.27590631,"ECCENTRICITY":0.0001716,"INCLINATION":42.9995,"RA_OF_ASC_NODE":78.1201,"ARG_OF_PERICENTER":269.7391,"MEAN_ANOMALY":90.3264,"EPHEMERIS_TYPE":0,"CLASSIFICATION_TYPE":"U","NORAD_CAT_ID":63476,"ELEMENT_SET_NO":999,"REV_AT_EPOCH":3839,"BSTAR":0.00029856,"MEAN_MOTION_DOT":7.965e-5,"MEAN_MOTION_DDOT":0},{"OBJECT_NAME":"STARLINK-33630","OBJECT_ID":"2025-070T","EPOCH":"2025-12-04T15:46:09.323904","MEAN_MOTION":15.27647442,"ECCENTRICITY":0.0001325,"INCLINATION":43.0002,"RA_OF_ASC_NODE":72.906,"ARG_OF_PERICENTER":261.5215,"MEAN_ANOMALY":98.5487,"EPHEMERIS_TYPE":0,"CLASSIFICATION_TYPE":"U","NORAD_CAT_ID":63477,"ELEMENT_SET_NO":999,"REV_AT_EPOCH":3848,"BSTAR":0.0021432,"MEAN_MOTION_DOT":0.00059312,"MEAN_MOTION_DDOT":0},{"OBJECT_NAME":"STARLINK-33695","OBJECT_ID":"2025-070U","EPOCH":"2025-12-04T15:27:38.759040","MEAN_MOTION":15.27652064,"ECCENTRICITY":0.0003304,"INCLINATION":43.0076,"RA_OF_ASC_NODE":72.8102,"ARG_OF_PERICENTER":281.9341,"MEAN_ANOMALY":78.114,"EPHEMERIS_TYPE":0,"CLASSIFICATION_TYPE":"U","NORAD_CAT_ID":63478,"ELEMENT_SET_NO":999,"REV_AT_EPOCH":3848,"BSTAR":0.0018694,"MEAN_MOTION_DOT":0.00051659,"MEAN_MOTION_DDOT":0},{"OBJECT_NAME":"STARLINK-33713","OBJECT_ID":"2025-070V","EPOCH":"2025-12-04T15:33:11.945088","MEAN_MOTION":15.2763043,"ECCENTRICITY":0.0001859,"INCLINATION":43.0036,"RA_OF_ASC_NODE":72.8347,"ARG_OF_PERICENTER":263.1084,"MEAN_ANOMALY":96.9556,"EPHEMERIS_TYPE":0,"CLASSIFICATION_TYPE":"U","NORAD_CAT_ID":63479,"ELEMENT_SET_NO":999,"REV_AT_EPOCH":3848,"BSTAR":0.0018132,"MEAN_MOTION_DOT":0.00050051,"MEAN_MOTION_DDOT":0}]
